[{"OBJECT_NAME":"WISDOM A","OBJECT_ID":"2025-276Y","EPOCH":"2026-03-09T17:03:25.278336","MEAN_MOTION":15.18235273,"ECCENTRICITY":0.00046161,"INCLINATION":97.4292,"RA_OF_ASC_NODE":143.9314,"ARG_OF_PERICENTER":4.7568,"MEAN_ANOMALY":355.3709,"EPHEMERIS_TYPE":0,"CLASSIFICATION_TYPE":"U","NORAD_CAT_ID":66688,"ELEMENT_SET_NO":999,"REV_AT_EPOCH":1531,"BSTAR":0.0003214307,"MEAN_MOTION_DOT":6.515e-5,"MEAN_MOTION_DDOT":0},{"OBJECT_NAME":"KIRARI (OICETS)","OBJECT_ID":"2005-031A","EPOCH":"2026-03-09T15:02:18.043872","MEAN_MOTION":15.22934858,"ECCENTRICITY":0.0019783,"INCLINATION":98.0768,"RA_OF_ASC_NODE":316.1697,"ARG_OF_PERICENTER":5.9068,"MEAN_ANOMALY":354.2396,"EPHEMERIS_TYPE":0,"CLASSIFICATION_TYPE":"U","NORAD_CAT_ID":28809,"ELEMENT_SET_NO":999,"REV_AT_EPOCH":12344,"BSTAR":0.00027776,"MEAN_MOTION_DOT":6.472e-5,"MEAN_MOTION_DDOT":0}]
